{"type": "FeatureCollection", "name": "FRK burn options", "features": [{"type": "Feature", "geometry": {"type": "Polygon", "coordinates": [[[118.01159522700004, -35.01647825999993], [118.003984607, -35.02078615099998], [118.0025064670001, -35.01822341199994], [118.00498650600002, -35.01360121899995], [117.99770507100004, -35.01001422599995], [117.97841297600007, -35.01267270699998], [117.97000672700005, -35.015469261999954], [117.96570193200012, -35.012268492999965], [117.9616888810001, -35.013024239999936], [117.953201164, -35.00759193999994], [117.94878255000003, -35.00187767999995], [117.95141014800004, -34.99630111099998], [117.97216280400005, -34.995435734999944], [117.97980131100007, -34.990941146999944], [117.9802399780001, -34.978573497999946], [117.97802968500002, -34.972638167999946], [117.99627568900007, -34.97283442799994], [117.99648858000012, -34.98054932699995], [118.0039325250001, -34.98431327499998], [118.00893075500005, -34.98258019799994], [118.00894857300011, -34.98768970599997], [118.01203559541987, -34.9866022921613], [118.01159522700004, -35.01647825999993]]]}, "properties": {"layer": "Burn option", "burnid": "ALB_082", "location": "Gull Rock National Park", "status": "Ignition Commenced", "priority": 2, "fin_yr": "2025/26", "purpose": "\"Bushfire Risk Management,Biodiversity Management\""}}, {"type": "Feature", "geometry": {"type": "MultiPolygon", "coordinates": [[[[117.52423187500005, -34.90689834999995], [117.52424753900004, -34.91492747799998], [117.51873990800004, -34.91493353299995], [117.50935064900011, -34.90945330499994], [117.52423187500005, -34.90689834999995]]], [[[117.54767963100005, -34.94326197299995], [117.54766771000004, -34.92875759999998], [117.54986935400007, -34.92875642799993], [117.54986245500004, -34.91969038499997], [117.56340143800003, -34.919681916999934], [117.56342185000005, -34.942233045999956], [117.55955808500005, -34.94115699399998], [117.55640561900009, -34.94282462299998], [117.54767963100005, -34.94326197299995]]], [[[117.57037060900007, -34.943351862999975], [117.5703658750001, -34.92705723299997], [117.57682981200003, -34.92705987399995], [117.576826363, -34.933950109999955], [117.58893691900005, -34.933953162999956], [117.5892891310001, -34.93765722999996], [117.59685959500007, -34.93570115699998], [117.59974429400006, -34.93784712899998], [117.59507767800005, -34.93784243199997], [117.59507432300006, -34.94783308499996], [117.5743846360001, -34.94768482899997], [117.574381474, -34.94269648299996], [117.57037060900007, -34.943351862999975]]], [[[117.51206423400004, -34.93966557099998], [117.5198307610001, -34.934598317999985], [117.51907055100003, -34.930658998999945], [117.50624869600006, -34.93236675299994], [117.50536390400009, -34.93584902699996], [117.49063866300003, -34.935864651999964], [117.49075767400006, -34.92746125799994], [117.50631415200007, -34.92744968899996], [117.50630336000006, -34.921433828999966], [117.52688829100009, -34.92141910199996], [117.526884203, -34.917974035999976], [117.53639645200008, -34.91796342899994], [117.53639816400005, -34.92245239899995], [117.5191916120001, -34.94174314999998], [117.51178782200009, -34.94214064199997], [117.51206423400004, -34.93966557099998]]]]}, "properties": {"layer": "Burn option", "burnid": "ALB_093", "location": "Redmond Satellites", "status": "No Ignitions", "priority": 3, "fin_yr": "2025/26", "purpose": "\"Bushfire Risk Management,Biodiversity Management\""}}, {"type": "Feature", "geometry": {"type": "Polygon", "coordinates": [[[117.92752195700007, -34.918463594999935], [117.91681033700002, -34.91846718499994], [117.91887856900007, -34.90674576499998], [117.92516900800001, -34.90758061399998], [117.9253120940001, -34.90468302599993], [117.92179339900008, -34.90456493499994], [117.92170786300005, -34.90629179999996], [117.9189429600001, -34.90638076799996], [117.92083882000009, -34.89563300899994], [117.96875854300004, -34.89552660299995], [117.96891430500011, -34.90725151899994], [117.94809449800005, -34.91918904599993], [117.92795655100008, -34.92355775499993], [117.92752195700007, -34.918463594999935]]]}, "properties": {"layer": "Burn option", "burnid": "ALB_092", "location": "Bakers Junction", "status": "No Ignitions", "priority": 2, "fin_yr": "2025/26", "purpose": "\"Bushfire Risk Management,Biodiversity Management\""}}, {"type": "Feature", "geometry": {"type": "MultiPolygon", "coordinates": [[[[117.77011864500003, -34.38698387199997], [117.77009527000007, -34.387019244999976], [117.7700577390001, -34.386958178999976], [117.77011864500003, -34.38698387199997]]], [[[117.77202793700008, -34.384095239999965], [117.78730926100002, -34.37357659199995], [117.80560274800007, -34.365365717999964], [117.80746683600012, -34.36317722999996], [117.80708219300004, -34.35775456199997], [117.80377528800011, -34.352044604999946], [117.80252499800008, -34.344941785999936], [117.79282082600002, -34.33078293999995], [117.79194342200003, -34.31604543499998], [117.79324552300011, -34.31309450899994], [117.8030821540001, -34.321980517999975], [117.81247430200006, -34.32670014599995], [117.83034186500004, -34.32903237399995], [117.83162880700002, -34.33215003599997], [117.83717839600001, -34.33661789799993], [117.83444214700012, -34.347609586999965], [117.8396497650001, -34.365841864999936], [117.83931788900009, -34.38444911499994], [117.84360018100006, -34.391193459999954], [117.84982638200006, -34.39629966199993], [117.84513786000002, -34.39703710499998], [117.82775617300001, -34.39298746399993], [117.80191122400004, -34.39300632299995], [117.77814502800004, -34.38592619399998], [117.77205747300002, -34.38731338499997], [117.77011864500003, -34.38698387199997], [117.77202793700008, -34.384095239999965]]]]}, "properties": {"layer": "Burn option", "burnid": "ALB_088", "location": "SRNP Marri Track", "status": "No Ignitions", "priority": 2, "fin_yr": "2025/26", "purpose": "\"Bushfire Risk Management,Biodiversity Management\""}}, {"type": "Feature", "geometry": {"type": "Polygon", "coordinates": [[[117.37402974300005, -34.90892307599995], [117.38008228500007, -34.91530023699994], [117.3805451720001, -34.91722571399998], [117.37055253800008, -34.91613185199998], [117.37050926600011, -34.90833151099997], [117.37402974300005, -34.90892307599995]]]}, "properties": {"layer": "Burn option", "burnid": "FRK_103", "location": "Hay", "status": "Ignition Commenced", "priority": 2, "fin_yr": "2025/26", "purpose": "\"Bushfire Risk Management,Biodiversity Management\""}}, {"type": "Feature", "geometry": {"type": "Polygon", "coordinates": [[[116.91579410000008, -34.21560648399998], [116.91581165200012, -34.25093808299994], [116.96052138700009, -34.251022287999945], [116.96036571200011, -34.26318273099997], [116.89865494978103, -34.263225818894234], [116.89865494978103, -34.21749051080401], [116.91579410000008, -34.21560648399998]]]}, "properties": {"layer": "Burn option", "burnid": "DON_151", "location": "Bolbelup", "status": "No Ignitions", "priority": 3, "fin_yr": "2025/26", "purpose": "\"Bushfire Risk Management,Biodiversity Management,Aboriginal interest\""}}, {"type": "Feature", "geometry": {"type": "Polygon", "coordinates": [[[117.51516564400004, -34.75872862199998], [117.51525776500011, -34.76536738899995], [117.52028689600002, -34.76929053899994], [117.55979828600005, -34.76792446299993], [117.55992259000004, -34.77231501099993], [117.56932738300009, -34.772337601999936], [117.57045689800009, -34.77776463299995], [117.56877347200009, -34.78137482999995], [117.57112916400001, -34.790783257999976], [117.575508151, -34.78974606999998], [117.57671137200009, -34.791539916999966], [117.57511239300004, -34.79309610299998], [117.57595686900004, -34.79689444299993], [117.57103741100002, -34.80127673199996], [117.5759271930001, -34.805731082999955], [117.57206534800002, -34.808015377999936], [117.56903867400001, -34.80792971999995], [117.56830343000001, -34.80981427699993], [117.56194315200003, -34.812105706999944], [117.55974454900002, -34.81492538499998], [117.55704624500004, -34.81498961899996], [117.55619214, -34.81808325299994], [117.55228496000007, -34.816538657999956], [117.54431141400005, -34.81820191899993], [117.53333966800005, -34.817652247999945], [117.52626510100004, -34.81057643199995], [117.52123489700011, -34.80799233899995], [117.5109822180001, -34.81042108099996], [117.50246615800006, -34.81437578999993], [117.49799754100002, -34.823591488999966], [117.48197149100008, -34.83178831199996], [117.47867592500006, -34.829849044999946], [117.4675880210001, -34.82937359599998], [117.46592913100005, -34.827242600999966], [117.4627644410001, -34.82660014399994], [117.4128488120001, -34.82912188499995], [117.43443530800005, -34.81193266199995], [117.45470825400002, -34.78825600399995], [117.45950522300006, -34.78026096299993], [117.4750382950001, -34.76507038999995], [117.48244064200003, -34.761157709999964], [117.48247016100004, -34.76362875099994], [117.48583623600007, -34.76360032699995], [117.48513303800007, -34.76811871799998], [117.49689233600009, -34.768195514999945], [117.49619621400007, -34.75890277599996], [117.51516564400004, -34.75872862199998]], [[117.47720156600008, -34.77561689099997], [117.46841507300007, -34.78417902799998], [117.47118479900007, -34.78373196599995], [117.47118936200002, -34.78735600299996], [117.47488897100004, -34.78735281199994], [117.47499190300005, -34.79085667299995], [117.48351804900005, -34.79103932899994], [117.4828830140001, -34.77652552799998], [117.47720156600008, -34.77561689099997]]]}, "properties": {"layer": "Burn option", "burnid": "FRK_094", "location": "Sheepwash North", "status": "Ignition Commenced", "priority": 1, "fin_yr": "2025/26", "purpose": "\"Bushfire Risk Management,Biodiversity Management\""}}, {"type": "Feature", "geometry": {"type": "MultiPolygon", "coordinates": [[[[117.28143919600006, -34.631862911999974], [117.28071785300006, -34.64089406099998], [117.2670418990001, -34.64095650999997], [117.26704055100004, -34.655353513999955], [117.23274379300005, -34.655321337999965], [117.23693363300004, -34.65070342299998], [117.243640292, -34.631804030999945], [117.28143919600006, -34.631862911999974]]], [[[117.33600022900009, -34.62988888399997], [117.33599601900005, -34.637007135999966], [117.36129762400003, -34.63700983999996], [117.36037677600007, -34.64352003499994], [117.36696907800001, -34.64591496099996], [117.37208373700003, -34.651290151999945], [117.376573785, -34.65108671099995], [117.37729477100004, -34.65612283699994], [117.379711111, -34.65622990799994], [117.37957548400004, -34.65790028799995], [117.32131744500009, -34.65799347799998], [117.32129252000004, -34.67186111199993], [117.31495476500004, -34.67188245199998], [117.31498338200004, -34.698330630999976], [117.29957952200004, -34.698799658999974], [117.294146092, -34.696824], [117.29046801000004, -34.697271280999985], [117.29025315800004, -34.68881216099993], [117.28806669500011, -34.688712555999984], [117.288051375, -34.66292920099994], [117.28214362800009, -34.66264876899993], [117.28077883300011, -34.64270411399997], [117.29467368900009, -34.642557791999934], [117.29494636400011, -34.633287173999975], [117.32111926900006, -34.63333713399993], [117.32132627600004, -34.62953595399995], [117.33600022900009, -34.62988888399997]]]]}, "properties": {"layer": "Burn option", "burnid": "FRK_037", "location": "Pardelup", "status": "No Ignitions", "priority": 1, "fin_yr": "2025/26", "purpose": "\"Bushfire Risk Management,Biodiversity Management\""}}, {"type": "Feature", "geometry": {"type": "MultiPolygon", "coordinates": [[[[117.22447079400001, -34.99661068699993], [117.22473245200001, -34.997884521999936], [117.22453911500008, -34.998262258999944], [117.22447079400001, -34.99661068699993]]], [[[117.27151355100011, -35.015779918999954], [117.27253767000002, -35.01655636299995], [117.269451204, -35.01856330399994], [117.26930299300011, -35.01582503999998], [117.264786608, -35.015735339999935], [117.26486321300001, -35.013745048999965], [117.27467339700002, -35.01372744899993], [117.27151355100011, -35.015779918999954]]], [[[117.22446223700001, -35.02016761799996], [117.23258693800005, -35.01867530299995], [117.23678316200005, -35.02268850299998], [117.23521560600011, -35.02383148599995], [117.22614885200005, -35.022134292999965], [117.22446223700001, -35.02016761799996]]]]}, "properties": {"layer": "Burn option", "burnid": "FRK_039", "location": "William Bay", "status": "Ignition Commenced", "priority": 2, "fin_yr": "2025/26", "purpose": "\"Bushfire Risk Management,Biodiversity Management,Aboriginal interest\""}}, {"type": "Feature", "geometry": {"type": "MultiPolygon", "coordinates": [[[[116.9264534570001, -35.056828837999944], [116.9264398140001, -35.05666257399997], [116.92661285600002, -35.05666944099994], [116.9264534570001, -35.056828837999944]]], [[[116.90230903100007, -35.026851619999945], [116.90225154100006, -35.04133665099994], [116.92282406100003, -35.03847928599998], [116.92589360200009, -35.041370324999946], [116.9254652840001, -35.04451122499995], [116.92943740300007, -35.04980356799996], [116.928387573, -35.052791225999954], [116.92474981600003, -35.05319524399994], [116.92694844200003, -35.05890974999994], [116.924645112, -35.06371624899998], [116.92112394800006, -35.06432823899996], [116.91808583300008, -35.06320035799996], [116.91768896600001, -35.06138023699998], [116.91566876700006, -35.06250151599994], [116.91575662800005, -35.060276106999936], [116.91277367500004, -35.05825323099998], [116.90587206100008, -35.05875741099993], [116.90595201200006, -35.055741454999975], [116.90379480500008, -35.054774909999935], [116.89963385600004, -35.054732790999935], [116.89865494978103, -35.05606941280422], [116.89865494978103, -35.02686421648188], [116.90230903100007, -35.026851619999945]]]]}, "properties": {"layer": "Burn option", "burnid": "FRK_100", "location": "Conspicuous Cliff", "status": "No Ignitions", "priority": 1, "fin_yr": "2025/26", "purpose": "\"Bushfire Risk Management,Biodiversity Management\""}}, {"type": "Feature", "geometry": {"type": "Polygon", "coordinates": [[[117.1517642880001, -34.99863682299997], [117.1571053020001, -34.99885359199993], [117.1571612570001, -35.00111655199993], [117.163575003, -35.001158303999944], [117.16738392500008, -35.008481675999974], [117.166426408, -35.02182003399997], [117.16987742100002, -35.02390908399997], [117.16082646600012, -35.02766533299996], [117.15984146900007, -35.02957171799994], [117.15543231200002, -35.02136496099996], [117.14737545100002, -35.018534590999934], [117.14943369500008, -35.01539131699997], [117.15197970600002, -35.01489282699998], [117.15199161400005, -35.010812046999945], [117.14266887300005, -35.00742369499994], [117.14695190500004, -35.00340240399993], [117.15004091000003, -35.00309783599994], [117.1517642880001, -34.99863682299997]]]}, "properties": {"layer": "Burn option", "burnid": "FRK_061", "location": "Parry Inlet", "status": "Ignition Commenced", "priority": 3, "fin_yr": "2025/26", "purpose": "\"Bushfire Risk Management,Biodiversity Management\""}}, {"type": "Feature", "geometry": {"type": "Polygon", "coordinates": [[[117.5566296940001, -34.35696568399993], [117.57060370500005, -34.36132990699997], [117.5722647560001, -34.359044205999965], [117.57706916200004, -34.36483458899994], [117.56232971700001, -34.36480484899994], [117.55471356300006, -34.360994921999975], [117.5566296940001, -34.35696568399993]]]}, "properties": {"layer": "Burn option", "burnid": "ALB_090", "location": "Tenterden Townsite ", "status": "No Ignitions", "priority": 1, "fin_yr": "2025/26", "purpose": "\"Bushfire Risk Management,Biodiversity Management\""}}, {"type": "Feature", "geometry": {"type": "Polygon", "coordinates": [[[116.98166157500009, -34.96994193699993], [116.98167602100011, -34.97592384199993], [116.97301449800011, -34.973270860999946], [116.96910084900003, -34.97489230399998], [116.96738536100008, -34.97746264999995], [116.96440366000002, -34.977208245999975], [116.9643891820001, -34.97195541899998], [116.97277856500011, -34.96995313999997], [116.98166157500009, -34.96994193699993]]]}, "properties": {"layer": "Burn option", "burnid": "FRK_075", "location": "Irwin", "status": "Ignition Commenced", "priority": 3, "fin_yr": "2025/26", "purpose": "\"Bushfire Risk Management,Biodiversity Management\""}}, {"type": "Feature", "geometry": {"type": "Polygon", "coordinates": [[[117.15292993900005, -34.93509755699995], [117.1547852000001, -34.93696580499994], [117.15475080800002, -34.944671753999955], [117.1455678640001, -34.944715034999945], [117.14536737100002, -34.93760427799998], [117.15292993900005, -34.93509755699995]]]}, "properties": {"layer": "Burn option", "burnid": "FRK_105", "location": "Kordabup North", "status": "Ignition Commenced", "priority": 3, "fin_yr": "2025/26", "purpose": "\"Bushfire Risk Management,Biodiversity Management\""}}, {"type": "Feature", "geometry": {"type": "Polygon", "coordinates": [[[117.21323231300005, -34.85120901499994], [117.25752740900009, -34.856497375999936], [117.25877663300002, -34.85816300099998], [117.25806872800001, -34.86271569499996], [117.27554724200002, -34.87132960099996], [117.2802268370001, -34.870462361999955], [117.29345377200002, -34.873479207999935], [117.29465219200006, -34.863109244999976], [117.29297316400005, -34.86135273399998], [117.29962598400004, -34.86485581299996], [117.29828429100007, -34.86673861199995], [117.30012022100004, -34.86867679799997], [117.30542525300007, -34.86662256999995], [117.30542373000003, -34.87355632599997], [117.31070464700008, -34.87355986599994], [117.31070212000009, -34.87682410599996], [117.31648865800003, -34.876829062999946], [117.31648289300006, -34.87962331999995], [117.31359651700006, -34.88284675299997], [117.30839026900003, -34.87989928899998], [117.29952366300006, -34.879946477999965], [117.29950559200006, -34.88939592099996], [117.3127151440001, -34.888890860999936], [117.31523748300003, -34.89072146099994], [117.31531102400004, -34.893440545999965], [117.31325042500009, -34.89623401999995], [117.31013903500002, -34.897175292999975], [117.31012898600011, -34.899756303999936], [117.29489038100007, -34.89975348799993], [117.29487810800003, -34.90395836799996], [117.31034989400007, -34.90396070199995], [117.31034620500009, -34.91019086699998], [117.2987286980001, -34.91019148699996], [117.29871502800006, -34.91427475599994], [117.3120406480001, -34.91428611499998], [117.31238308000002, -34.916400272999965], [117.30411906600011, -34.91633867899998], [117.30410737800003, -34.921123275999946], [117.2981746910001, -34.92112286599996], [117.29817597500005, -34.91675380399994], [117.28915998700006, -34.91521321399995], [117.28917773400008, -34.90965267099995], [117.27098165400002, -34.909676472999934], [117.26287282100009, -34.905881472999965], [117.26287466200006, -34.90244426499993], [117.25960152300001, -34.902443767999955], [117.25960675700003, -34.89521696799994], [117.25662956800011, -34.89516593399998], [117.25681272800011, -34.88325562499995], [117.26524309500007, -34.88378409099994], [117.26526153100008, -34.873626430999934], [117.25525410600005, -34.87370938599997], [117.2517295340001, -34.87151950699996], [117.247624212, -34.87188429199995], [117.24672031000011, -34.87909353499998], [117.23286682000003, -34.87987588999994], [117.22710482600007, -34.87213566799994], [117.22168979000003, -34.874855767999975], [117.21635902900005, -34.867526074999944], [117.22381614300002, -34.86359599499997], [117.21597841900007, -34.85286434099993], [117.20904177400007, -34.85615070799997], [117.20596149500011, -34.853043071999934], [117.21323231300005, -34.85120901499994]]]}, "properties": {"layer": "Burn option", "burnid": "FRK_108", "location": "Harewood", "status": "Ignition Commenced", "priority": 1, "fin_yr": "2025/26", "purpose": "\"Bushfire Risk Management,Biodiversity Management\""}}, {"type": "Feature", "geometry": {"type": "Polygon", "coordinates": [[[116.96884556600003, -34.91132275399997], [116.99513296100008, -34.910864739999965], [116.98976153700005, -34.91126602999998], [116.9894224620001, -34.913771606999944], [116.99000424200005, -34.918126006999955], [116.99432032600009, -34.91868342199996], [116.9944443060001, -34.92286589099996], [116.99739244900002, -34.924282861999984], [116.99923950700008, -34.921887227999946], [117.00446659400006, -34.91983208399995], [117.00583952400007, -34.92718627399995], [117.0047925340001, -34.93540968299993], [117.00098777000005, -34.93956420999996], [116.97772855200003, -34.93533235499996], [116.97016899200003, -34.936274613999956], [116.9679275520001, -34.93403315499995], [116.95786956400002, -34.933244352999964], [116.95137303800004, -34.93524411299995], [116.94394257500005, -34.93126703199994], [116.93947039400007, -34.92131850499993], [116.93957748500009, -34.91309510899998], [116.94631790100004, -34.91573337899996], [116.96884556600003, -34.91132275399997]]]}, "properties": {"layer": "Burn option", "burnid": "FRK_110", "location": "Thames South", "status": "Ignition Commenced", "priority": 1, "fin_yr": "2025/26", "purpose": "\"Bushfire Risk Management,Biodiversity Management\""}}, {"type": "Feature", "geometry": {"type": "Polygon", "coordinates": [[[116.97626184600006, -34.653497942999934], [116.98032030000002, -34.65304303999994], [117.05613295300009, -34.67405088399994], [117.0617332600001, -34.68031127399996], [117.07141712500004, -34.68515385799998], [117.07901270200011, -34.68475423199993], [117.09854621400007, -34.68742554999994], [117.10210103700001, -34.684980432999964], [117.1034783980001, -34.68886619699998], [117.10728655000003, -34.689836311999954], [117.11366783800008, -34.687498871999935], [117.14503543700005, -34.68663677999996], [117.14356760200008, -34.692186413999934], [117.1471881980001, -34.697356541999966], [117.14334878300008, -34.69869385299995], [117.14645157100006, -34.70484238199998], [117.14479547500002, -34.71578790499996], [117.1450657790001, -34.730179430999954], [117.13779038100006, -34.733852782999975], [117.13879841500011, -34.74267364899998], [117.14206991000003, -34.74424573699997], [117.14145477000011, -34.75097539099994], [117.13619142300001, -34.755562994999934], [117.1357522300001, -34.768481502999975], [117.09920196700011, -34.765214054999944], [117.0935816870001, -34.76322970799998], [117.0874331660001, -34.76417852099996], [117.0710624510001, -34.75939878799994], [117.05048490500008, -34.757012180999936], [117.02648800600002, -34.75764512199993], [117.01476461700008, -34.76229598499998], [116.99697959600007, -34.76328122899997], [116.99452647700002, -34.75726911099997], [116.98315323700001, -34.74876496799993], [116.98866677900003, -34.737371691999954], [116.970123553, -34.70738637799997], [116.97000287000003, -34.68601218899994], [116.95896330900007, -34.678640307999956], [116.95627686300008, -34.67468657599994], [116.9555132370001, -34.65588978899996], [116.96167329900004, -34.64783266499995], [116.97626184600006, -34.653497942999934]]]}, "properties": {"layer": "Burn option", "burnid": "FRK_112", "location": "Willmott Quindinillup", "status": "Ignition Commenced", "priority": 1, "fin_yr": "2025/26", "purpose": "\"Bushfire Risk Management,Biodiversity Management\""}}, {"type": "Feature", "geometry": {"type": "Polygon", "coordinates": [[[116.91611038400004, -34.96935496899994], [116.92392392700003, -34.977496059999964], [116.91579696300005, -34.97846610199997], [116.90335431800008, -34.97160553699996], [116.91221911700006, -34.96678903499998], [116.91600324100011, -34.96667980199993], [116.91611038400004, -34.96935496899994]]]}, "properties": {"layer": "Burn option", "burnid": "FRK_116", "location": "Vermeulen Road", "status": "Ignition Commenced", "priority": 2, "fin_yr": "2025/26", "purpose": "\"Bushfire Risk Management,Biodiversity Management\""}}, {"type": "Feature", "geometry": {"type": "Polygon", "coordinates": [[[117.27924462100009, -34.29716468799995], [117.2791943420001, -34.28969561699995], [117.29194408, -34.29450133199998], [117.27924462100009, -34.29716468799995]]]}, "properties": {"layer": "Burn option", "burnid": "WHB_008", "location": "Rock Hole Dam", "status": "No Ignitions", "priority": 2, "fin_yr": "2025/26", "purpose": "\"Bushfire Risk Management\""}}, {"type": "Feature", "geometry": {"type": "MultiPolygon", "coordinates": [[[[117.607245196, -35.07840193399994], [117.60724869900002, -35.07854814899997], [117.60724503600011, -35.07840184599996], [117.607245196, -35.07840193399994]]], [[[117.55763512700003, -35.06379588799996], [117.5708631870001, -35.06380934599997], [117.56925737800009, -35.06547414299996], [117.57062228900008, -35.06754557199997], [117.57912231400007, -35.06760942999995], [117.57919942, -35.07082456799998], [117.5961273040001, -35.07604004499996], [117.6072429840001, -35.07638070999997], [117.60724277100007, -35.08001571099993], [117.61862726200002, -35.079994382999985], [117.62289213100007, -35.08201989499997], [117.62599356800001, -35.080014947999985], [117.62574640100001, -35.078182210999955], [117.62726347500006, -35.07954735499993], [117.62725401400007, -35.083546258999945], [117.63395754200008, -35.08349204199993], [117.63407386300003, -35.080023034999954], [117.64503158100001, -35.08001913299995], [117.641693271, -35.07447461499993], [117.64749600800008, -35.07444109499994], [117.65161986900011, -35.08254296499996], [117.65079673700006, -35.08513031099994], [117.64993859700007, -35.08620937799998], [117.64303507900001, -35.08496538299994], [117.637161579, -35.08864473699998], [117.63593161800009, -35.09443419399997], [117.63771443600001, -35.09900464799995], [117.63350308000008, -35.10403348199998], [117.63477976800004, -35.10680446699996], [117.63083991400003, -35.107327905999966], [117.6285126890001, -35.11220122999998], [117.6285876820001, -35.114089847999935], [117.63051462900012, -35.11435205599997], [117.63130073800005, -35.11754652199994], [117.63426380800001, -35.11992317199997], [117.634390757, -35.12410456599997], [117.63959157700003, -35.12323872199994], [117.64174574700007, -35.12556205599998], [117.63912130400001, -35.13018706799994], [117.63971687500009, -35.134459006999975], [117.63762686900009, -35.13446205099996], [117.63480435100007, -35.13045955699994], [117.6294041000001, -35.12772594399996], [117.6256174350001, -35.128615672999956], [117.6264349380001, -35.132114565999984], [117.6239916180001, -35.134192363999944], [117.62153882300004, -35.13134206799998], [117.61529300100005, -35.12991316899996], [117.61391328600007, -35.13254455899994], [117.61118580300001, -35.13328872799997], [117.60936829200011, -35.12795456599997], [117.60700523600008, -35.12753345699997], [117.60853577600005, -35.12212150399995], [117.60661520500003, -35.11618094399995], [117.59779715700006, -35.11245122299994], [117.59585324700004, -35.10771733399997], [117.58844307000004, -35.10378594699995], [117.58376391600007, -35.10410239099997], [117.5833223630001, -35.10176022899998], [117.56292612400011, -35.08914203099994], [117.52468872700001, -35.074019316999966], [117.5214241760001, -35.07621756799995], [117.51998910800012, -35.07485868699996], [117.52424906500005, -35.070412603999955], [117.52581420900003, -35.07120226699993], [117.53114607500004, -35.067959223999935], [117.53563367900006, -35.067903713999954], [117.53562969400002, -35.06558639599996], [117.54746426800011, -35.06594567399998], [117.55471685200007, -35.06463221499996], [117.55763815600005, -35.062404571999934], [117.55763512700003, -35.06379588799996]]]]}, "properties": {"layer": "Burn option", "burnid": "ALB_038", "location": "West Cape Howe National Park - West", "status": "Ignition Commenced", "priority": 3, "fin_yr": "2025/26", "purpose": "\"Bushfire Risk Management,Biodiversity Management\""}}, {"type": "Feature", "geometry": {"type": "MultiPolygon", "coordinates": [[[[117.55790312800002, -34.87782590399996], [117.5661160730001, -34.877818529999956], [117.57176408900011, -34.87781319499993], [117.56611660400006, -34.877818600999944], [117.55790312800002, -34.87782590399996]]], [[[117.5751359520001, -34.847523870999964], [117.58861598500005, -34.84680505899996], [117.58863669900006, -34.85604665999995], [117.5928844450001, -34.85607751599997], [117.59298692300001, -34.86659306299998], [117.60193302000005, -34.86659372799994], [117.60184827500007, -34.873285591999945], [117.59068742600004, -34.87332643999997], [117.59061909900004, -34.87938047999995], [117.59068323600002, -34.883577816999946], [117.60205476100009, -34.88357457999996], [117.60202944100001, -34.89485625299994], [117.57128963000002, -34.89489224199997], [117.57521459500003, -34.90708161699996], [117.57172695200006, -34.90967137699994], [117.563654014, -34.907209930999954], [117.522493155, -34.90670817999995], [117.49723154000003, -34.91258587599998], [117.49044954600004, -34.918988851999984], [117.49018445800004, -34.91318113199998], [117.47665590500003, -34.91310690299997], [117.48231264600008, -34.909147307999945], [117.48032188000002, -34.907054467999956], [117.48313361800001, -34.905401799999936], [117.48163185500005, -34.89941112599996], [117.48480648000009, -34.89575525899994], [117.4880640230001, -34.895065820999946], [117.4863549480001, -34.891023735999966], [117.487920959, -34.88743723199997], [117.4957239150001, -34.887486742999954], [117.49988711700007, -34.890093786999955], [117.5063154830001, -34.88720851099998], [117.50948761100005, -34.88873723599994], [117.51355755600002, -34.885022909999975], [117.515032818, -34.88118423099996], [117.5239617850001, -34.879414716999975], [117.52415669000004, -34.87736688699994], [117.52838329500003, -34.87565015499996], [117.54731844800006, -34.87570483899998], [117.5497885310001, -34.87886533099993], [117.548133473, -34.88431318399995], [117.57176819400001, -34.88417294399994], [117.57177964200002, -34.87779799499998], [117.55791788600004, -34.877811959999974], [117.5579087430001, -34.87067340999994], [117.55044220400009, -34.87026005499996], [117.54979501000003, -34.86162116599996], [117.55396678400007, -34.86157138599998], [117.55408635700007, -34.85652995199996], [117.56366428800004, -34.84789302399997], [117.56419431300003, -34.843814721999934], [117.5751359520001, -34.847523870999964]]]]}, "properties": {"layer": "Burn option", "burnid": "ALB_042", "location": "Redmond State Forest", "status": "No Ignitions", "priority": 3, "fin_yr": "2025/26", "purpose": "\"Bushfire Risk Management,Biodiversity Management\""}}, {"type": "Feature", "geometry": {"type": "Polygon", "coordinates": [[[117.86231631900012, -34.46527727299997], [117.93678806500009, -34.46499878499998], [118.005158692, -34.445467090999955], [118.00639961200011, -34.47888795299997], [117.75602807300004, -34.47906315199998], [117.7564812060001, -34.477617478999946], [117.7591857540001, -34.47722303099994], [117.75132731800011, -34.47315420399997], [117.74814698500006, -34.457778659999974], [117.73405064400004, -34.44002661799993], [117.73287142800007, -34.43628996999996], [117.73086725900009, -34.43597751699997], [117.73619598800008, -34.43437788699998], [117.7393229490001, -34.431046651999964], [117.74155693000012, -34.424488190999966], [117.73975874400003, -34.41237700499994], [117.74734264300002, -34.40607598899993], [117.78034743300009, -34.42407582799996], [117.81682313400006, -34.44890803599998], [117.8408934580001, -34.45613587499997], [117.86231631900012, -34.46527727299997]]]}, "properties": {"layer": "Burn option", "burnid": "ALB_065", "location": "Stirling Range National Park Cell 3", "status": "Ignition Commenced", "priority": 3, "fin_yr": "2025/26", "purpose": "\"Bushfire Risk Management,Biodiversity Management\""}}, {"type": "Feature", "geometry": {"type": "Polygon", "coordinates": [[[117.83065810500011, -35.05717594499998], [117.83595921500012, -35.05647330199997], [117.83666546200004, -35.059026880999966], [117.8283433470001, -35.06425802799998], [117.82566953000003, -35.06776374499998], [117.85033142700001, -35.06417464499998], [117.85029924300011, -35.069884523999974], [117.85751911500006, -35.070079722999935], [117.85747450600002, -35.08939579899993], [117.88392232800004, -35.08891033599997], [117.88408849600012, -35.09292038999996], [117.89261452800008, -35.092894513999966], [117.89268668300008, -35.08690819299994], [117.89910647800002, -35.08788921799993], [117.90609979200008, -35.093251116999966], [117.91120057900002, -35.10445153799998], [117.92438963200004, -35.11066330799997], [117.93630323400009, -35.11228637599993], [117.94036642200001, -35.11586884999997], [117.93370920300003, -35.118434126999944], [117.93222172100002, -35.12041938899995], [117.92442519600002, -35.12180581499996], [117.92146009200007, -35.12006771399996], [117.9208152650001, -35.11625139499995], [117.90445036000006, -35.114657525999974], [117.90042933300003, -35.116443054999934], [117.89940023200006, -35.11816134999998], [117.90087315000005, -35.12334314799995], [117.89882929700002, -35.12342509299998], [117.88986112300006, -35.11761692699997], [117.89115719000006, -35.11599779299996], [117.890308247, -35.114118652999935], [117.88566494800011, -35.11267116099998], [117.88555991800001, -35.11006506299998], [117.87578306500006, -35.107184778999965], [117.86590839400003, -35.10923201299994], [117.86083979300008, -35.10231898799998], [117.85153781400004, -35.09803845999994], [117.85154752900007, -35.09483985899993], [117.84605169000008, -35.09125265799997], [117.80020434100004, -35.06972753799994], [117.79895972700001, -35.06692790099993], [117.80836248800006, -35.06008825899994], [117.80967223800008, -35.06094678699998], [117.81734925, -35.059003564999955], [117.82165544500003, -35.055658938999954], [117.83165717700001, -35.055661423999936], [117.83065810500011, -35.05717594499998]]]}, "properties": {"layer": "Burn option", "burnid": "ALB_071", "location": "TNP The Gap", "status": "Ignition Commenced", "priority": 2, "fin_yr": "2025/26", "purpose": "\"Bushfire Risk Management,Biodiversity Management\""}}, {"type": "Feature", "geometry": {"type": "Polygon", "coordinates": [[[118.00102199700007, -35.087334709999936], [118.01203559541987, -35.09282958884813], [118.01199301400004, -35.10463013499998], [118.009643546, -35.10414258299994], [118.00748330800002, -35.10008513699995], [117.99613586700002, -35.09873166899996], [117.9947770340001, -35.10109710599994], [117.99236317100008, -35.09918453299997], [117.98322385100005, -35.098629717999984], [117.97570951600005, -35.099694419999935], [117.9752431610001, -35.102645879999955], [117.96898818200009, -35.101386643999945], [117.96704302100011, -35.10933389099995], [117.97015230900001, -35.112175442999956], [117.96949789300004, -35.114358418999984], [117.95949590700002, -35.12128635899995], [117.95396092300007, -35.12233009499994], [117.95321993700009, -35.12690552999993], [117.94822572900011, -35.128219240999954], [117.94426518500006, -35.125737355999945], [117.94343761700009, -35.12667489699993], [117.94347380700003, -35.12471367499995], [117.94690052200008, -35.12158018899993], [117.94079203400008, -35.119226536999975], [117.94126432500002, -35.11496809799996], [117.94043154000008, -35.11602318699994], [117.9362815400001, -35.11231334399997], [117.92404066400002, -35.110581363999984], [117.91117897400011, -35.104478434999976], [117.9065842980001, -35.09404375299994], [117.91195279500005, -35.093046767999965], [117.91213152300008, -35.09018209599998], [117.939371703, -35.090250115999936], [117.94825257200011, -35.09680794199994], [117.94973656000002, -35.094501090999984], [117.95737393700006, -35.096156393999934], [117.95792000600011, -35.09948805999994], [117.96328357800007, -35.101147124999954], [117.96328010200011, -35.09480855099997], [117.96459890000006, -35.094183278999935], [117.969090101, -35.096179622999955], [117.97244868400003, -35.094857944999944], [117.98018873500007, -35.096294075999936], [117.98400606000007, -35.09257968099996], [117.99273649700001, -35.09234858299993], [117.9958778780001, -35.09058515399994], [117.99593226900004, -35.08809190599993], [118.00102199700007, -35.087334709999936]]]}, "properties": {"layer": "Burn option", "burnid": "ALB_081", "location": "Goode Beach", "status": "No Ignitions", "priority": 3, "fin_yr": "2025/26", "purpose": "\"Bushfire Risk Management,Biodiversity Management\""}}]}