{"type": "FeatureCollection", "name": "FRK granite influence", "features": [{"type": "Feature", "geometry": {"type": "Polygon", "coordinates": [[[117.01489700800005, -34.26681663299996], [117.02284472000008, -34.26664033199995], [117.02494388100001, -34.26957128899994], [117.01872416300012, -34.27274045199994], [117.00853543000005, -34.27298551599995], [117.00233046800008, -34.27057666999997], [117.00018847400008, -34.26627025099998], [117.00152300000002, -34.26319260699995], [117.00486849300012, -34.26253703899994], [117.01489700800005, -34.26681663299996]]]}, "properties": {"layer": "Granite influence", "unit_name": "South West Terrane greenstones", "code": "A-xmno-mni-YSW", "description": "Granulite and migmatite", "rock_type": "metamorphic protolith unknown: gneiss", "lithology": "gneissose granulite"}}, {"type": "Feature", "geometry": {"type": "Polygon", "coordinates": [[[117.48138364300007, -34.19608479899995], [117.48251296100011, -34.199445287999936], [117.48090161200003, -34.20205295899996], [117.47285561000001, -34.204685180999945], [117.46133488600003, -34.201774686999954], [117.45005888005309, -34.19577284590814], [117.48138364300007, -34.19608479899995]]]}, "properties": {"layer": "Granite influence", "unit_name": "South West Terrane greenstones", "code": "A-xmno-mni-YSW", "description": "Granulite and migmatite", "rock_type": "metamorphic protolith unknown: gneiss", "lithology": "gneissose granulite"}}, {"type": "Feature", "geometry": {"type": "Polygon", "coordinates": [[[116.95879131700008, -34.38640161799998], [117.0430241580001, -34.39354010699998], [117.09204108300003, -34.393064238999955], [117.13582320300009, -34.38782938099996], [117.17156449000004, -34.37775928899998], [117.20034152800008, -34.39234763999997], [117.25907935000009, -34.38868588599996], [117.29258218200005, -34.39097014299995], [117.36948636900001, -34.38868581799994], [117.40582806100008, -34.381883382999945], [117.44978969900001, -34.41853874499998], [117.50273621200006, -34.414193603999934], [117.52405607500009, -34.41076722199995], [117.54329243900008, -34.40502656299998], [117.56681622200006, -34.42363167999997], [117.58306654800003, -34.41914300499997], [117.61925118500005, -34.40495425299997], [117.63813934500001, -34.40844630599997], [117.676900982, -34.41030285399995], [117.70977811400007, -34.41607619699994], [117.73219244000006, -34.42192956699995], [117.76231623700005, -34.42564139999996], [117.77445140600003, -34.429353341999956], [117.80088252200005, -34.441719588999945], [117.81644496800004, -34.447209751999935], [117.80551603600009, -34.46960980299997], [117.8026606950001, -34.48217334499998], [117.80323187200008, -34.501018682999984], [117.8066582460001, -34.51586652699996], [117.81329950200006, -34.52458318999993], [117.82918339000003, -34.53236888299995], [117.8461249830001, -34.53503381799993], [117.88000856500003, -34.53217845199998], [117.98307263900006, -34.51226642599994], [118.01203559541987, -34.51047754004662], [118.01203559541987, -34.60196238872534], [117.99162433200001, -34.60722467599993], [117.97925117900002, -34.608176499999956], [117.91572361200008, -34.60327725999997], [117.84396377100006, -34.54833104699998], [117.80203517100006, -34.532582410999964], [117.76253628500001, -34.531630692999954], [117.74064531800002, -34.52925127699996], [117.72065791900002, -34.52258883899998], [117.70247889100006, -34.519067279999945], [117.63859658400008, -34.51163740199996], [117.59238329400011, -34.511430178999944], [117.60298292200002, -34.51672991499993], [117.42984672700004, -34.52793118799997], [117.40945413600002, -34.52376521599996], [117.38828489200012, -34.52321654899998], [117.3711527800001, -34.518933525999955], [117.31166637000001, -34.51798181099997], [117.25265570900001, -34.52178901899998], [117.1812719290001, -34.520361339999965], [117.14272476100007, -34.51512653299994], [117.12273735300005, -34.51560241799996], [117.10560523900006, -34.51227117399998], [117.08752135800012, -34.51131937699995], [117.01185455900008, -34.49894612299994], [116.93571182900007, -34.49561482599995], [116.91524846100003, -34.49228358399995], [116.89865494978103, -34.4871211589589], [116.89865494978103, -34.376487177514115], [116.95879131700008, -34.38640161799998]]]}, "properties": {"layer": "Granite influence", "unit_name": "Biranup Zone metagranitic unit", "code": "AP_-mgn-KKBB", "description": "Metagranitic and gneissic rocks dominant, locally with mafic amphibolite lenses; may include remnants of Archean rocks", "rock_type": "meta-igneous felsic intrusive", "lithology": "granitic gneiss"}}, {"type": "Feature", "geometry": {"type": "Polygon", "coordinates": [[[118.01203559541987, -34.51047754004662], [117.98307263900006, -34.51226642599994], [117.88000856500003, -34.53217845199998], [117.85583323000003, -34.534653101999936], [117.83603617500012, -34.53427242699996], [117.82118841700003, -34.52913282999998], [117.81329950200006, -34.52458318999993], [117.8066582460001, -34.51586652699996], [117.80323187200008, -34.501018682999984], [117.8026606950001, -34.48217334499998], [117.80551603600009, -34.46960980299997], [117.81644496800004, -34.447209751999935], [117.8586285770001, -34.46208711999998], [117.90720958800011, -34.46709551999993], [117.92659522300005, -34.47350596199993], [117.96538040100006, -34.47279215299994], [118.01203559541987, -34.462636423103596], [118.01203559541987, -34.51047754004662]]]}, "properties": {"layer": "Granite influence", "unit_name": "Northern Foreland metagranitic unit", "code": "AP_-xmg-mo-AFON", "description": "Metagranitic and metamafic rocks; Archean granite and greenstone intruded by Proterozoic granite and gabbro", "rock_type": "meta-igneous felsic intrusive", "lithology": "metagranitic rock"}}, {"type": "Feature", "geometry": {"type": "Polygon", "coordinates": [[[116.91524846100003, -34.49228358399995], [116.93571182900007, -34.49561482599995], [117.01185455900008, -34.49894612299994], [117.08752135800012, -34.51131937699995], [117.10560523900006, -34.51227117399998], [117.12273735300005, -34.51560241799996], [117.14272476100007, -34.51512653299994], [117.1812719290001, -34.520361339999965], [117.25265570900001, -34.52178901899998], [117.31166637000001, -34.51798181099997], [117.3711527800001, -34.518933525999955], [117.38828489200012, -34.52321654899998], [117.40945413600002, -34.52376521599996], [117.42984672700004, -34.52793118799997], [117.60298292200002, -34.51672991499993], [117.59238329400011, -34.511430178999944], [117.61495702400009, -34.51055198599994], [117.63859658400008, -34.51163740199996], [117.70247889100006, -34.519067279999945], [117.72065791900002, -34.52258883899998], [117.74064531800002, -34.52925127699996], [117.76253628500001, -34.531630692999954], [117.80203517100006, -34.532582410999964], [117.84396377100006, -34.54833104699998], [117.91572361200008, -34.60327725999997], [117.97925117900002, -34.608176499999956], [117.99162433200001, -34.60722467599993], [118.01203559541987, -34.60196238872534], [118.01203559541987, -34.65215515685799], [117.98528967100003, -34.64197773999996], [117.9657656820001, -34.639711244999944], [117.93093047400009, -34.62800433799998], [117.88381696900001, -34.620865772999935], [117.81528871900002, -34.600021700999946], [117.78802313100005, -34.59483754699994], [117.77625302000001, -34.59479714299994], [117.74760938100007, -34.59917449399995], [117.72883187000002, -34.604323601999965], [117.72160665700005, -34.60799164699995], [117.68562936300009, -34.617128984999965], [117.54057751800008, -34.64139958599998], [117.50031702700005, -34.65224994599998], [117.48318491700002, -34.65424869599997], [117.4703358270001, -34.65310655899998], [117.45320369600006, -34.64939461499995], [117.43036089700001, -34.64139962499996], [117.4095168450001, -34.63854427499996], [117.40482455100005, -34.639248598999984], [117.39939938400005, -34.64448341699995], [117.39882832700005, -34.65390607799998], [117.40037974900008, -34.65738959399994], [117.4200817520001, -34.676234861999944], [117.42465034300005, -34.68280215699997], [117.42386037500012, -34.687884674999964], [117.41351448900002, -34.69308141499994], [117.39409810500001, -34.69907768599995], [117.36611564700002, -34.70107646599996], [117.3391840160001, -34.70083412699995], [117.28139976200009, -34.669030067999984], [117.25256070500006, -34.64447404099997], [117.23742730600009, -34.63419476599995], [117.22380706600006, -34.626921977999984], [117.20675113000004, -34.62113512499997], [117.18543117400009, -34.60514514699997], [117.15276419600002, -34.602801349999936], [117.12035806300003, -34.59650413299994], [117.11064987500004, -34.596789659999956], [117.05611266500011, -34.588794632999964], [117.02584579800009, -34.58593925699995], [116.99015384100005, -34.57822977699993], [116.9609415010001, -34.57672237199995], [116.9538031190001, -34.57362906999998], [116.94856830200001, -34.56744246499994], [116.94357143000002, -34.56434916199993], [116.93215002300008, -34.56077996799996], [116.89865494978103, -34.561624198635194], [116.89865494978103, -34.4871211589589], [116.91524846100003, -34.49228358399995]]]}, "properties": {"layer": "Granite influence", "unit_name": "Biranup Zone metagranitic unit", "code": "AP_-xmggn-mgmn-KKBB", "description": "Granodioritic and monzogranitic layered gneiss; locally with biotite, clinopyroxene, orthopyroxene, hornblende, or garnet; locally with layers of mafic gneiss; may include remnants of Archean rocks", "rock_type": "meta-igneous felsic intrusive", "lithology": "metagranodiorite"}}, {"type": "Feature", "geometry": {"type": "Polygon", "coordinates": [[[117.89218149200008, -34.648004122999964], [117.93336482500001, -34.661832122999954], [117.98088510600007, -34.66713887499998], [118.01203559541987, -34.674727396189766], [118.01203559541987, -34.70347405830104], [118.0051281420001, -34.703804341999955], [117.98471822900001, -34.69902005199998], [117.97205951000001, -34.70173264599998], [117.95584454300001, -34.70196568699998], [117.94137747500008, -34.707676438999954], [117.92671999100003, -34.70767647899993], [117.90064104100009, -34.700442986999974], [117.87303924200012, -34.70082361499993], [117.81536100400001, -34.69168644299998], [117.80298777600001, -34.69720680199998], [117.78014490700002, -34.69834894199994], [117.78376161100005, -34.67855180299995], [117.78827381000008, -34.67359056699996], [117.80482117500003, -34.667028184999936], [117.82394585500003, -34.66252494099996], [117.84694302500009, -34.652718524999955], [117.86473060800006, -34.65247703199998], [117.87379771100007, -34.64795526599994], [117.89218149200008, -34.648004122999964]]]}, "properties": {"layer": "Granite influence", "unit_name": "Esperance Supersuite", "code": "P_-EP-g", "description": "Granitic rock; undeformed to moderately deformed", "rock_type": "igneous felsic intrusive", "lithology": ""}}, {"type": "Feature", "geometry": {"type": "Polygon", "coordinates": [[[117.25403326100002, -34.67217354699994], [117.23633009500008, -34.671792841999945], [117.23004828600006, -34.67026998799997], [117.22338577900007, -34.662275002999934], [117.22376648800002, -34.653899302999946], [117.2273832410001, -34.64933073399993], [117.2327132040001, -34.64609467199995], [117.25287831500009, -34.644741830999976], [117.2721435950001, -34.66106974999997], [117.27040387900001, -34.66703390899994], [117.26678711800002, -34.66950854799995], [117.25403326100002, -34.67217354699994]]]}, "properties": {"layer": "Granite influence", "unit_name": "Esperance Supersuite", "code": "P_-EP-g", "description": "Granitic rock; undeformed to moderately deformed", "rock_type": "igneous felsic intrusive", "lithology": ""}}, {"type": "Feature", "geometry": {"type": "Polygon", "coordinates": [[[117.88283690500009, -35.17539339299998], [117.89169684300009, -35.178083381999954], [117.89511677500002, -35.17703336499994], [117.89608704700004, -35.181413429999964], [117.88745687400001, -35.18184341999995], [117.88562741700002, -35.18397341599996], [117.88296698800002, -35.181343382999955], [117.87922736500002, -35.18229350499996], [117.87749719300007, -35.180893484999956], [117.87546720600005, -35.182483468999976], [117.87320710100005, -35.180873496999936], [117.87758674400004, -35.17667353799993], [117.88283690500009, -35.17539339299998]]]}, "properties": {"layer": "Granite influence", "unit_name": "Nornalup Zone metagranitic unit", "code": "P_-jmgnn-mog-KKBN", "description": "Granitic gneiss interlayered with metagabbro; may include intrusions of Recherche and Esperance Supersuites", "rock_type": "meta-igneous felsic intrusive", "lithology": "granitic gneiss"}}, {"type": "Feature", "geometry": {"type": "Polygon", "coordinates": [[[116.95843708200005, -35.01454120999995], [116.95882732100006, -35.01270115199998], [116.96178722700006, -35.011131089999935], [116.95981696500007, -35.01384109399993], [116.95843708200005, -35.01454120999995]]]}, "properties": {"layer": "Granite influence", "unit_name": "Nornalup Zone metagranitic unit", "code": "P_-jmgnn-mog-KKBN", "description": "Granitic gneiss interlayered with metagabbro; may include intrusions of Recherche and Esperance Supersuites", "rock_type": "meta-igneous felsic intrusive", "lithology": "granitic gneiss"}}, {"type": "Feature", "geometry": {"type": "Polygon", "coordinates": [[[118.01144085100009, -34.30947456699994], [117.96511080100004, -34.30716834899994], [117.92877114600003, -34.30900304199997], [117.87552775400002, -34.30865645799997], [117.82790850100002, -34.30322589199994], [117.77569557400011, -34.29199309699993], [117.75868378000007, -34.291297896999936], [117.6981363540001, -34.283592443999964], [117.6752181710001, -34.28362304099994], [117.63149706500008, -34.28038312999996], [117.59153170800005, -34.293421844999955], [117.5873888100001, -34.29723982899998], [117.5893990300001, -34.301365964999945], [117.58890365700006, -34.30376958399995], [117.5800087240001, -34.31003684299998], [117.58857126600003, -34.31946503599994], [117.59800903300004, -34.31954935999994], [117.60881333900011, -34.31748645399995], [117.62415330400006, -34.318625743999974], [117.63040972900001, -34.330357911999954], [117.65913841700001, -34.34203147799997], [117.67137083900002, -34.35160613599993], [117.67884047100006, -34.360675630999935], [117.68100080600004, -34.36463068799998], [117.68028478400004, -34.36967430399994], [117.66504055200005, -34.37170625299996], [117.65658310900005, -34.365689766999935], [117.65764033900007, -34.376309497999955], [117.66414370000007, -34.38741358499993], [117.67545057500001, -34.39400022199993], [117.68750829200008, -34.39645374799994], [117.68745160000003, -34.397941628999945], [117.67721991200006, -34.40139187899996], [117.67907102000004, -34.410789627999975], [117.63813934500001, -34.40844630599997], [117.59654934700006, -34.40005652399998], [117.57211631000007, -34.39260343899997], [117.5078711110001, -34.36633407599993], [117.44362579100004, -34.34834532899998], [117.42506601600007, -34.34491890999993], [117.40450749600006, -34.343776779999985], [117.36995764400001, -34.34577553899993], [117.35534324000002, -34.34311511699997], [117.33800557200004, -34.33093193999997], [117.29771714200001, -34.335781905999966], [117.25517234600011, -34.33806622199995], [117.20577470100011, -34.33949388999997], [117.17350919900002, -34.33863730599995], [117.09660180900005, -34.33346026899994], [117.03959313500002, -34.32264735299998], [117.00904087000004, -34.32121964399994], [116.97077912600002, -34.32350388899994], [116.9249031270001, -34.317031689999965], [116.89865494978103, -34.31724112740551], [116.89865494978103, -34.19577284590814], [117.45005888005309, -34.19577284590814], [117.46133488600003, -34.201774686999954], [117.47285561000001, -34.204685180999945], [117.48161836100007, -34.20132197799995], [117.48254464200011, -34.198526217999984], [117.4811430153314, -34.19577284590814], [117.78528664281693, -34.19577284590814], [117.80140938500006, -34.20749591099997], [117.80260746700003, -34.20677294799998], [117.80169271700004, -34.20502956799993], [117.79049712799743, -34.19577284590814], [118.01203559541987, -34.19577284590814], [118.01144085100009, -34.30947456699994]], [[117.4060549410001, -34.29531321099995], [117.3636401770001, -34.295091180999975], [117.35034324800006, -34.30086737499994], [117.3533272840001, -34.30456107599997], [117.35916721100011, -34.307805661999964], [117.39001991200007, -34.31670377599994], [117.40517840700011, -34.31901587899995], [117.41956001200003, -34.31584634899997], [117.43866478100006, -34.30037050399994], [117.45666654200011, -34.30049721399996], [117.45941944700007, -34.29900852299994], [117.4566096750001, -34.29216221599995], [117.45023914500007, -34.28419738899993], [117.44235157100002, -34.280046046999985], [117.42928321700003, -34.28744675299998], [117.4060549410001, -34.29531321099995]], [[117.49971059800009, -34.33994585399995], [117.52384968600006, -34.34526439399997], [117.53078472100003, -34.34099390199998], [117.52833205400009, -34.33771915699998], [117.52197553300005, -34.335161349999964], [117.50080278100006, -34.332324391999975], [117.49653247900005, -34.33360696799997], [117.49682481500008, -34.336460613999975], [117.49971059800009, -34.33994585399995]], [[117.58642342300004, -34.37011479599994], [117.58977648300004, -34.36932622399996], [117.59083811800008, -34.366590119999955], [117.58450861300003, -34.35897719099995], [117.57826007300002, -34.35516010899994], [117.5722206910001, -34.357556004999935], [117.5716267030001, -34.36081967999996], [117.57557012500001, -34.36516118399993], [117.58024077000005, -34.36848381699997], [117.58642342300004, -34.37011479599994]], [[117.00729953900009, -34.27272245599994], [117.02263880100008, -34.27180985199993], [117.02470376300005, -34.268644896999945], [117.02284472000008, -34.26664033199995], [117.01489700800005, -34.26681663299996], [117.00596793400007, -34.26273909899993], [117.00152300000002, -34.26319260699995], [117.00018847400008, -34.26627025099998], [117.00152298900002, -34.26991560799996], [117.00729953900009, -34.27272245599994]], [[117.81343079600003, -34.21705215299994], [117.81404856800009, -34.21493790399995], [117.80902083900003, -34.20895508799998], [117.80386637700008, -34.20858058899995], [117.80657607500007, -34.21271723899997], [117.81343079600003, -34.21705215299994]]]}, "properties": {"layer": "Granite influence", "unit_name": "Yilgarn Craton granites", "code": "A-g-Y", "description": "Granitic rock, undivided; metamorphosed", "rock_type": "igneous felsic intrusive", "lithology": ""}}, {"type": "Feature", "geometry": {"type": "Polygon", "coordinates": [[[116.89865494978103, -34.31724112740551], [116.9249031270001, -34.317031689999965], [116.97077912600002, -34.32350388899994], [117.00904087000004, -34.32121964399994], [117.03959313500002, -34.32264735299998], [117.09660180900005, -34.33346026899994], [117.17350919900002, -34.33863730599995], [117.20577470100011, -34.33949388999997], [117.25517234600011, -34.33806622199995], [117.29771714200001, -34.335781905999966], [117.33800557200004, -34.33093193999997], [117.35534324000002, -34.34311511699997], [117.36995764400001, -34.34577553899993], [117.40450749600006, -34.343776779999985], [117.42506601600007, -34.34491890999993], [117.44362579100004, -34.34834532899998], [117.5078711110001, -34.36633407599993], [117.57211631000007, -34.39260343899997], [117.59654934700006, -34.40005652399998], [117.61925118500005, -34.40495425299997], [117.58306654800003, -34.41914300499997], [117.56681622200006, -34.42363167999997], [117.54329243900008, -34.40502656299998], [117.52405607500009, -34.41076722199995], [117.50273621200006, -34.414193603999934], [117.44978969900001, -34.41853874499998], [117.40582806100008, -34.381883382999945], [117.36948636900001, -34.38868581799994], [117.29258218200005, -34.39097014299995], [117.25907935000009, -34.38868588599996], [117.20034152800008, -34.39234763999997], [117.17156449000004, -34.37775928899998], [117.13582320300009, -34.38782938099996], [117.09204108300003, -34.393064238999955], [117.06872235200001, -34.39354012399997], [117.0430241580001, -34.39354010699998], [116.93880386000001, -34.38402213099994], [116.89865494978103, -34.376487177514115], [116.89865494978103, -34.31724112740551]], [[117.0109404960001, -34.34365480499997], [117.0422528790001, -34.34359607099998], [117.06110463200002, -34.34648752299995], [117.07903802900012, -34.34690090599997], [117.09610777800003, -34.34636908099998], [117.10390575600002, -34.34393153199994], [117.07463776700001, -34.34247308399995], [117.04633061800007, -34.33804757499996], [117.00569312400012, -34.33780020199998], [117.00548936400003, -34.339787412999954], [117.0109404960001, -34.34365480499997]]]}, "properties": {"layer": "Granite influence", "unit_name": "Northern Foreland metagranitic unit", "code": "AP_-xmg-mo-AFON", "description": "Metagranitic and metamafic rocks; Archean granite and greenstone intruded by Proterozoic granite and gabbro", "rock_type": "meta-igneous felsic intrusive", "lithology": "metagranitic rock"}}, {"type": "Feature", "geometry": {"type": "Polygon", "coordinates": [[[116.89865494978103, -34.561624198635194], [116.922394241, -34.56054202799993], [116.93833661000008, -34.56196969999996], [116.94856830200001, -34.56744246499994], [116.9538031190001, -34.57362906999998], [116.9609415010001, -34.57672237199995], [116.99015384100005, -34.57822977699993], [117.02584579800009, -34.58593925699995], [117.05611266500011, -34.588794632999964], [117.11064987500004, -34.596789659999956], [117.12035806300003, -34.59650413299994], [117.15276419600002, -34.602801349999936], [117.18543117400009, -34.60514514699997], [117.20675113000004, -34.62113512499997], [117.22380706600006, -34.626921977999984], [117.25287831500009, -34.644741830999976], [117.2327132040001, -34.64609467199995], [117.2273832410001, -34.64933073399993], [117.22376648800002, -34.653899302999946], [117.22338577900007, -34.662275002999934], [117.23004828600006, -34.67026998799997], [117.24185046100001, -34.67217354699994], [117.26412213700007, -34.671031407999976], [117.27040387900001, -34.66703390899994], [117.2721435950001, -34.66106974999997], [117.28139976200009, -34.669030067999984], [117.3391840160001, -34.70083412699995], [117.36611564700002, -34.70107646599996], [117.39409810500001, -34.69907768599995], [117.41351448900002, -34.69308141499994], [117.42386037500012, -34.687884674999964], [117.42465034300005, -34.68280215699997], [117.4200817520001, -34.676234861999944], [117.40037974900008, -34.65738959399994], [117.39882832700005, -34.65390607799998], [117.39939938400005, -34.64448341699995], [117.40482455100005, -34.639248598999984], [117.4095168450001, -34.63854427499996], [117.43036089700001, -34.64139962499996], [117.45320369600006, -34.64939461499995], [117.4703358270001, -34.65310655899998], [117.48318491700002, -34.65424869599997], [117.50031702700005, -34.65224994599998], [117.54057751800008, -34.64139958599998], [117.68562936300009, -34.617128984999965], [117.72160665700005, -34.60799164699995], [117.72883187000002, -34.604323601999965], [117.74760938100007, -34.59917449399995], [117.77625302000001, -34.59479714299994], [117.78802313100005, -34.59483754699994], [117.81528871900002, -34.600021700999946], [117.88381696900001, -34.620865772999935], [117.93093047400009, -34.62800433799998], [117.9657656820001, -34.639711244999944], [117.98528967100003, -34.64197773999996], [118.01203559541987, -34.65215515685799], [118.01203559541987, -34.674727396189766], [117.98088510600007, -34.66713887499998], [117.93336482500001, -34.661832122999954], [117.89536783200003, -34.64841085599994], [117.87379771100007, -34.64795526599994], [117.86473060800006, -34.65247703199998], [117.84694302500009, -34.652718524999955], [117.82394585500003, -34.66252494099996], [117.80482117500003, -34.667028184999936], [117.78827381000008, -34.67359056699996], [117.78376161100005, -34.67855180299995], [117.77957382800003, -34.696064648999936], [117.78014490700002, -34.69834894199994], [117.78319062300011, -34.69872966199995], [117.79860955100003, -34.69777787299995], [117.80298777600001, -34.69720680199998], [117.81345743600002, -34.69206716299993], [117.81954886900007, -34.691876804999936], [117.83839423600011, -34.69625504199996], [117.85209993700005, -34.696635759999936], [117.87303924200012, -34.70082361499993], [117.90064104100009, -34.700442986999974], [117.92671999100003, -34.70767647899993], [117.94137747500008, -34.707676438999954], [117.95584454300001, -34.70196568699998], [117.97205951000001, -34.70173264599998], [117.98471822900001, -34.69902005199998], [118.0051281420001, -34.703804341999955], [118.01203559541987, -34.70347405830104], [118.01203559541987, -35.01712475793622], [118.00402158500003, -35.02102191999995], [118.00274178000006, -35.01806184099996], [118.00467173100003, -35.013931715999945], [117.99962161600001, -35.01056161399998], [117.98550135200003, -35.01170190999994], [117.96897160500009, -35.01530195399994], [117.96605162600008, -35.01300192399998], [117.96105159100011, -35.01271205299997], [117.95356181000011, -35.00806211699995], [117.94829179400006, -35.00156204999996], [117.95106161600006, -34.99618192699995], [117.96978158500008, -34.995171683999956], [117.97933131100001, -34.990711534999946], [117.97935111800007, -34.976151426999934], [117.97305118500003, -34.95976131699996], [117.9795609040001, -34.94975125399998], [117.97925145600004, -34.945101300999966], [117.98104153100007, -34.94108133199995], [117.98049150700001, -34.939091280999946], [117.97549142000003, -34.938581330999966], [117.97375124000007, -34.93578128399997], [117.97659151500011, -34.93127129699997], [117.97377140600008, -34.926861274999965], [117.97801172800007, -34.92352128199997], [117.97988136600009, -34.92091134499998], [117.97874165600001, -34.918591264999975], [117.98096146700004, -34.91798127399994], [117.98159186600003, -34.91608130399993], [117.98098171800007, -34.914191253999945], [117.97605177700007, -34.91326131999995], [117.97659151700009, -34.90919123899994], [117.97874156300009, -34.90761133199993], [117.9807316450001, -34.90932123899995], [117.98309183700007, -34.90887127899998], [117.98863133100008, -34.90553118099996], [117.99096160400006, -34.90275119699993], [117.99437158, -34.90267112199996], [118.00297151900008, -34.89697101599995], [118.00277135200008, -34.89583089599995], [117.99842104700008, -34.89446099899993], [118.0002912440001, -34.891960996999956], [117.99862113800009, -34.88938091999995], [117.99936136600002, -34.89159098199997], [117.99757146900004, -34.895021060999966], [118.0007913500001, -34.895740985999964], [118.00081115600005, -34.89726100799993], [117.9935118630001, -34.902031120999936], [117.99030170900005, -34.90205116699997], [117.98790196300001, -34.90521124099996], [117.98157191400003, -34.908511346999944], [117.97991126000011, -34.90674124299994], [117.9757314630001, -34.90834127699998], [117.97474169200007, -34.91348126299994], [117.98034161100009, -34.915221276999944], [117.97971154000004, -34.91734128099995], [117.9765117500001, -34.91872127599993], [117.97812162800005, -34.92136123499995], [117.97298123000007, -34.925941286999944], [117.975211263, -34.931221250999954], [117.97151130100008, -34.93521122299995], [117.97451146100002, -34.939401215999965], [117.97915147200001, -34.942181292999976], [117.97771142800002, -34.94300134599996], [117.97670136800002, -34.95156131799996], [117.96403115300006, -34.947281362999945], [117.95865124500006, -34.94721142499998], [117.94352105400003, -34.94084140999996], [117.94066118100011, -34.94286153999997], [117.94069102900005, -34.94665151099997], [117.92236089900007, -34.94587160999998], [117.91806105400008, -34.943891708999956], [117.91381126100009, -34.93939162399994], [117.91137117700009, -34.93919164599998], [117.92032114200003, -34.94642170399993], [117.93360116600002, -34.946591585999954], [117.9415211810001, -34.95027147099995], [117.94456106300004, -34.945861487999935], [117.94780088700008, -34.94676061599995], [117.94479109000008, -34.954291567999974], [117.94766104200005, -34.96364157199997], [117.94530129300006, -34.975941803999945], [117.94587155800002, -34.979991807999966], [117.93985164500009, -34.98171190099998], [117.94059143100003, -34.98847195299993], [117.9389714240001, -34.990921931999935], [117.94133158400007, -34.99090196499998], [117.94362152800011, -34.99548194699997], [117.94640179600003, -34.99708195799997], [117.94998126200005, -34.99397191099996], [117.94986138000002, -34.99527187799998], [117.94787166700007, -34.99918191299997], [117.93497151800011, -35.003452203999984], [117.92798216300002, -35.00778229399998], [117.91875214900006, -35.01758249599993], [117.91700182700004, -35.02490265599994], [117.92141216700008, -35.02557251099995], [117.92374207900002, -35.028102600999944], [117.9205222700001, -35.03455277899997], [117.91659250200007, -35.03627276499998], [117.91330246200005, -35.03553281699993], [117.90905265100002, -35.03789288399997], [117.90211258200009, -35.03556291099994], [117.89751286700005, -35.03586297399994], [117.88534236700002, -35.029413062999936], [117.87890273300002, -35.03021317599996], [117.86531273300011, -35.02674336299998], [117.8584824400001, -35.02700343199996], [117.8527325230001, -35.03089350799996], [117.85027266800012, -35.03469347999993], [117.84836291600004, -35.04720365399993], [117.84918299900005, -35.05001363499997], [117.85479318400007, -35.05219352599994], [117.85464308700011, -35.05635368099996], [117.86177322000003, -35.05852357999993], [117.86638302200004, -35.05838354699995], [117.86800302200004, -35.05691348499994], [117.87143312600006, -35.06386356699994], [117.87876345100005, -35.065493473999936], [117.88065346300004, -35.07067351899997], [117.88489353900002, -35.073233561999984], [117.88678354900003, -35.07701365099996], [117.8948428760001, -35.08035360899993], [117.89793311300002, -35.080113592999965], [117.90310306900005, -35.08365364699995], [117.90678298900002, -35.083133517999954], [117.90963272600004, -35.08452357099998], [117.91725281400011, -35.08322341599995], [117.92281300400009, -35.08026329899997], [117.92773279500011, -35.07329312699994], [117.92788291800002, -35.06290305599998], [117.9102130660001, -35.053623078999976], [117.91307287300003, -35.050362994999944], [117.91648278600007, -35.04958285999993], [117.9165025530001, -35.04584282199994], [117.91363259200011, -35.04197283299993], [117.92080271400005, -35.041112863999956], [117.92173261500011, -35.04288280299994], [117.91893253500007, -35.04457282399994], [117.91906292500005, -35.050472938999974], [117.92290268500005, -35.05336293299996], [117.92359245400007, -35.05569294399993], [117.92557280400001, -35.05691289799995], [117.9322122530001, -35.05578285599995], [117.93850252300001, -35.058822875999965], [117.93871274800006, -35.06076292999995], [117.93422250000003, -35.06486298599998], [117.93383264200008, -35.07146304299994], [117.93877288400006, -35.088793331999966], [117.94146279200004, -35.088613332999955], [117.9436127130001, -35.09194334699998], [117.94671303000007, -35.09273337199994], [117.95010279500002, -35.08945330999995], [117.95237297400001, -35.09279329199995], [117.95767295200005, -35.09545329499997], [117.96344308500011, -35.093793096999946], [117.96867320100012, -35.09580312799994], [117.97268323600008, -35.09490300799996], [117.97868304300005, -35.09632299799995], [117.98404303600012, -35.09286289299996], [117.9931830050001, -35.092142656999954], [117.99636286700002, -35.088542632999975], [118.0014827760001, -35.08780265099995], [118.01203559541987, -35.09280452313011], [118.01203559541987, -35.104907929903874], [118.00972285800003, -35.10450279299994], [118.00724279100007, -35.100362744999984], [118.00479300900008, -35.09951279099994], [117.99662315300009, -35.09915275999998], [117.99493297200002, -35.10095274699995], [117.99115300300002, -35.09887289899996], [117.97930335900003, -35.09864302799997], [117.97523317500008, -35.09954305799994], [117.97487316700006, -35.10268315899998], [117.96854322600007, -35.10192313599998], [117.96679330000006, -35.10994330799997], [117.96985331200005, -35.11202336899993], [117.96896340600006, -35.11495331699996], [117.9595532940001, -35.12131350299995], [117.95384331500009, -35.12243356799996], [117.95330332300011, -35.126603632999945], [117.9493634700001, -35.128313730999935], [117.94547367500002, -35.12785374899994], [117.944003425, -35.125863667999965], [117.94316353300007, -35.12668374799995], [117.94719336600008, -35.122053610999956], [117.94063347800011, -35.11945368499994], [117.9409132080001, -35.11517354499995], [117.93759329900001, -35.118013592999944], [117.92381367200005, -35.12239374099994], [117.92015349200005, -35.11912372199998], [117.9204533080001, -35.11663383599995], [117.905753462, -35.114953931999935], [117.90024343800008, -35.11710387099998], [117.9000039020001, -35.12430378899995], [117.89092390300004, -35.11890393099998], [117.8894837690001, -35.113673956999946], [117.88558355700002, -35.11283400099995], [117.88516378400004, -35.11035405499996], [117.87275393900006, -35.10708409599994], [117.86546360700004, -35.10913421599997], [117.86071377700011, -35.10251419499997], [117.85238336000009, -35.09884428099997], [117.85109345900003, -35.094904191999944], [117.84533381300002, -35.09115418899995], [117.7795435380001, -35.06032436499993], [117.74919360100012, -35.05099451199993], [117.71730364400003, -35.04572481399998], [117.7092036250001, -35.045444922999934], [117.70810383100002, -35.047614918999955], [117.70488361100001, -35.04763499799998], [117.69979397600002, -35.05177509199996], [117.689263503, -35.04399519699996], [117.68386385200006, -35.04396530399998], [117.6725137950001, -35.04749545899995], [117.6659139190001, -35.05196558499995], [117.65829417000009, -35.054335659999936], [117.65673430200002, -35.05672570199994], [117.65213422700003, -35.05712575599995], [117.64722422200009, -35.06040589999998], [117.64436437800009, -35.064845961999936], [117.64367461400002, -35.068586092999965], [117.64778438100006, -35.07283605899994], [117.64740457100004, -35.07559609899994], [117.65128431200003, -35.08337614499993], [117.64959483300004, -35.08646621599996], [117.64393493500006, -35.08654631199994], [117.63692504500011, -35.090586508999934], [117.63576477200002, -35.09330657899994], [117.63752481300003, -35.10043655599998], [117.62880527200002, -35.11297688299993], [117.63439571900005, -35.120576942999946], [117.63507576200004, -35.12424696199997], [117.63869555600002, -35.12342695999996], [117.64148591600008, -35.12572681699993], [117.63907608400007, -35.12985700799993], [117.63911604200007, -35.13472708699993], [117.6368761330001, -35.13441711799993], [117.62977620100003, -35.12828705099997], [117.6259659750001, -35.12910710099993], [117.62612617000002, -35.13246719099993], [117.62357594700006, -35.13458741199997], [117.61557567400007, -35.130247881999935], [117.61118549300011, -35.13362803299998], [117.61016560700011, -35.13005771299993], [117.60672581900008, -35.12786729199996], [117.60807579100003, -35.12244694799995], [117.60711567100009, -35.11806653499997], [117.60392605700008, -35.114885862999984], [117.5978661800001, -35.11296553899996], [117.59618603800004, -35.108485248999955], [117.58680626000012, -35.10371534099994], [117.58384598200007, -35.10394548199997], [117.58336574600003, -35.10156534199996], [117.5643861750001, -35.08959687599997], [117.5451056490001, -35.08107703199994], [117.52505580400009, -35.07451657099995], [117.51896564700007, -35.078166702999965], [117.51880547100006, -35.07556643199996], [117.51486598600002, -35.07558622199997], [117.51146577500003, -35.079006671999934], [117.51365558200007, -35.08229707299995], [117.5126054640001, -35.08300708199994], [117.49807599700011, -35.08474722999995], [117.49597613200001, -35.08578744799996], [117.49657626600003, -35.08821735799995], [117.49336615000004, -35.08985725499997], [117.48381647100007, -35.088487449999946], [117.48483637300001, -35.08322756999996], [117.48272643100006, -35.08280754899994], [117.48520617100007, -35.07944738899994], [117.48058591200004, -35.07723734599995], [117.47871577700005, -35.07302722399993], [117.4549655190001, -35.062407494999945], [117.41247586800012, -35.03972717099998], [117.39975595800001, -35.03533733199998], [117.39757579200011, -35.03301731099998], [117.39402617200005, -35.03302729799998], [117.38018596300003, -35.02668740499996], [117.37050590900003, -35.02460740099997], [117.36206571500009, -35.01997751899995], [117.35687558900008, -35.02177751099998], [117.34917554300011, -35.02082763399994], [117.33274154300011, -35.022001658999955], [117.3354793420001, -35.01890547199997], [117.36189220400001, -35.005786117999946], [117.37084866000009, -35.00385187799998], [117.38310127500006, -35.00379844399998], [117.39126467400001, -35.000517678999984], [117.39401866800006, -35.00143289299996], [117.39497265700004, -35.008787962999975], [117.39824542100007, -35.012274736999984], [117.4110402230001, -35.01337726299994], [117.42420833000006, -35.02319664399994], [117.43002957600004, -35.02465393299997], [117.44034469300004, -35.02434101599994], [117.45126963900009, -35.021510157999955], [117.46183637500008, -35.02234140499996], [117.46539932900009, -35.01953764799998], [117.46192818200007, -35.01775627599994], [117.4535660790001, -35.01787084099993], [117.45030087300006, -35.01415518899995], [117.45626683100011, -35.008501396999975], [117.46794741500003, -35.009123031999934], [117.4719221790001, -35.00550638799996], [117.4783690810001, -35.00330139399995], [117.48096286900011, -34.99920791599993], [117.48105430500004, -34.99461846699995], [117.47684268700004, -34.982174896999936], [117.47086089800007, -34.974983975999976], [117.45232154600001, -34.96922350099993], [117.44784313200012, -34.970307092999974], [117.442189686, -34.974358526999936], [117.43873371600012, -34.98027548699997], [117.43221874700009, -34.985459929999934], [117.42326946100002, -34.98739788699993], [117.41666991900001, -34.98340384099998], [117.40973485200004, -34.98193143699996], [117.40484460800008, -34.976125080999964], [117.38459637800008, -34.972394288999965], [117.365950483, -34.97212363999995], [117.3661257870001, -34.97694584699997], [117.36169346300005, -34.98880997799995], [117.35462128000006, -34.99421174899993], [117.35184423900012, -34.993712165999966], [117.35028759200009, -34.98841323999994], [117.34551183600001, -34.99017579699995], [117.34210120000012, -34.993567043999974], [117.33846987000004, -34.99397160899997], [117.33473918100003, -35.00051810499997], [117.33622706000006, -35.00770144699993], [117.3339306150001, -35.010650202999955], [117.32918509100011, -35.01126832799997], [117.3266215320001, -35.01375566399997], [117.32612439700006, -35.024858894999966], [117.3298554370001, -35.02596787599998], [117.33099590800009, -35.029857937999964], [117.33712561900006, -35.034167896999975], [117.33575582800006, -35.03687786599994], [117.33102579000001, -35.037868042999946], [117.3342661370001, -35.04126797799995], [117.32341576300007, -35.04329809799998], [117.31932617300004, -35.04087808299994], [117.31689616200003, -35.04206824199997], [117.3165559570001, -35.03801815199995], [117.27038420600002, -35.02135374699998], [117.26413174200002, -35.02102930299998], [117.26125066400004, -35.02439637599997], [117.24739033600008, -35.028974941999934], [117.23770271800004, -35.025700298999936], [117.23506249100001, -35.02614040199995], [117.23302342800002, -35.02365020099995], [117.22532484600003, -35.022960067999975], [117.22145052100007, -35.020209043999955], [117.20414675300003, -35.01709817999995], [117.19185673400011, -35.01776822199997], [117.17463652300012, -35.02304833499994], [117.1624065850001, -35.030258679999974], [117.16044675300009, -35.037778712999966], [117.16394702800005, -35.03944868199994], [117.1617071180001, -35.04231877799998], [117.16474694100009, -35.04442873499994], [117.15428715500002, -35.04757890399998], [117.15113716000008, -35.05509903799998], [117.15595720200008, -35.05833903499996], [117.15115696300006, -35.06159913299996], [117.14106721600001, -35.052739163999945], [117.13501743800009, -35.05495925899993], [117.1324470300001, -35.04943919599998], [117.11710704900008, -35.042419318999976], [117.10953733000008, -35.04124940099996], [117.10848720700005, -35.038969419999944], [117.09729697300008, -35.03313949899996], [117.08038704700004, -35.03065964499996], [117.07729716900008, -35.03168978799994], [117.07657718100006, -35.034399780999934], [117.07282707200011, -35.03282973299997], [117.0744773020001, -35.03612985399997], [117.07078731500008, -35.038619978999975], [117.06368738700007, -35.034409961999984], [117.06394730600005, -35.03153994899998], [117.05973710500007, -35.02889007899995], [117.05532710500006, -35.03062015399996], [117.033157243, -35.025760822999985], [117.02460726600009, -35.02814106599993], [117.0238274940001, -35.03264114999996], [117.01915757500001, -35.03588132899995], [117.01368738200006, -35.031171291999954], [116.98224750100007, -35.02147092599995], [116.96165732700001, -35.02006110699995], [116.95777723000003, -35.016001106999965], [116.96376722600007, -35.011291007999944], [116.96679694400007, -35.00459123099995], [116.97165657200003, -35.00113125099995], [116.9780962210001, -34.99793147099996], [116.98645614500003, -34.99664131299994], [116.9965156180001, -34.99123138899995], [117.00177559200006, -34.99383104799995], [116.99421556800007, -34.98847190699996], [116.99631543300006, -34.98517178199995], [116.99230538100005, -34.97911225599995], [116.97337511700005, -34.97283231199998], [116.96910517800006, -34.97440246399998], [116.9650252990001, -34.97878259199996], [116.96383514400009, -34.98500278499995], [116.96016567400011, -34.98478281299998], [116.95745597900009, -34.98922252699998], [116.9550259780001, -34.989112638999984], [116.95489562700004, -34.987382913999966], [116.95378576100006, -34.98640299199997], [116.95193570800006, -34.98608304199996], [116.95305567700007, -34.985812959999976], [116.95279576100006, -34.98494301699998], [116.9511555900001, -34.98499305799993], [116.9513456410001, -34.983642962999966], [116.94931561500005, -34.98305283099995], [116.94996539500005, -34.97975269899996], [116.95148529700009, -34.98002287999998], [116.95378536100009, -34.976722654999946], [116.95266504000006, -34.97548255299995], [116.9533951200001, -34.976562644999944], [116.94977530500012, -34.97948269799997], [116.9487154950001, -34.983052751999935], [116.95108574300002, -34.983972903999984], [116.9509554330001, -34.985432979999985], [116.95266578200005, -34.98510303799998], [116.95154583800002, -34.98608304199996], [116.95462601500003, -34.98863275799994], [116.94976603100008, -34.99090248199997], [116.9473961870001, -34.994352109999966], [116.94574669600001, -35.00258172799994], [116.94259672500004, -35.00799173799993], [116.94653696600005, -35.01021149699994], [116.95791685300003, -35.00556134499993], [116.96303713400005, -35.00567113599993], [116.96310733300004, -35.00816109099998], [116.95711732400002, -35.01254121499994], [116.95408722900004, -35.017081195999936], [116.95527739900001, -35.01968113299995], [116.95942747400011, -35.018981106999945], [116.95955744100002, -35.02017109099995], [116.94606753200003, -35.02573139799995], [116.93513791800001, -35.03455158899993], [116.93316800100001, -35.03801164099997], [116.93381780900006, -35.04012159399997], [116.92986787200005, -35.04136170899994], [116.93171791100008, -35.04407160899996], [116.92907801600006, -35.04742176399998], [116.92933793300006, -35.051051722999944], [116.92827809200003, -35.052941817999965], [116.9247280940001, -35.05326175399995], [116.92735826300009, -35.059481750999964], [116.92550820200006, -35.06376188199994], [116.92128825800012, -35.06462189499996], [116.920838247, -35.06316192399993], [116.91774834400007, -35.06267194299994], [116.9182080700001, -35.06143201499998], [116.91603833200008, -35.06256195599997], [116.91314825500001, -35.05872210199993], [116.905838474, -35.05872227499998], [116.90583847900007, -35.05547228599994], [116.90017856300005, -35.055032360999974], [116.89998849200003, -35.05665235999993], [116.89865494978103, -35.05628242675723], [116.89865494978103, -34.561624198635194]]]}, "properties": {"layer": "Granite influence", "unit_name": "Nornalup Zone metagranitic unit", "code": "P_-jmgnn-mog-KKBN", "description": "Granitic gneiss interlayered with metagabbro; may include intrusions of Recherche and Esperance Supersuites", "rock_type": "meta-igneous felsic intrusive", "lithology": "granitic gneiss"}}]}